[{"OBJECT_NAME":"UNISAT-6","OBJECT_ID":"2014-033C","EPOCH":"2026-03-04T16:42:12.316032","MEAN_MOTION":14.87592314,"ECCENTRICITY":0.0046375,"INCLINATION":97.7715,"RA_OF_ASC_NODE":218.377,"ARG_OF_PERICENTER":54.07,"MEAN_ANOMALY":306.4806,"EPHEMERIS_TYPE":0,"CLASSIFICATION_TYPE":"U","NORAD_CAT_ID":40012,"ELEMENT_SET_NO":999,"REV_AT_EPOCH":63062,"BSTAR":0.00056247,"MEAN_MOTION_DOT":5.158e-5,"MEAN_MOTION_DDOT":0},{"OBJECT_NAME":"DUCHIFAT-1","OBJECT_ID":"2014-033M","EPOCH":"2026-03-04T08:08:59.838144","MEAN_MOTION":15.49057269,"ECCENTRICITY":0.00065986,"INCLINATION":98.0635,"RA_OF_ASC_NODE":109.1395,"ARG_OF_PERICENTER":99.603,"MEAN_ANOMALY":260.5965,"EPHEMERIS_TYPE":0,"CLASSIFICATION_TYPE":"U","NORAD_CAT_ID":40021,"ELEMENT_SET_NO":999,"REV_AT_EPOCH":63944,"BSTAR":0.0016453528,"MEAN_MOTION_DOT":0.00090082,"MEAN_MOTION_DDOT":0},{"OBJECT_NAME":"QB50P1","OBJECT_ID":"2014-033R","EPOCH":"2026-03-04T11:55:59.542752","MEAN_MOTION":15.16385168,"ECCENTRICITY":0.0007791,"INCLINATION":98.0999,"RA_OF_ASC_NODE":67.4292,"ARG_OF_PERICENTER":214.5862,"MEAN_ANOMALY":145.4863,"EPHEMERIS_TYPE":0,"CLASSIFICATION_TYPE":"U","NORAD_CAT_ID":40025,"ELEMENT_SET_NO":999,"REV_AT_EPOCH":63715,"BSTAR":0.00085696973,"MEAN_MOTION_DOT":0.00016603,"MEAN_MOTION_DDOT":0},{"OBJECT_NAME":"LILACSAT-2","OBJECT_ID":"2015-049K","EPOCH":"2026-03-04T20:38:58.179840","MEAN_MOTION":15.47812858,"ECCENTRICITY":0.000556,"INCLINATION":97.4812,"RA_OF_ASC_NODE":96.9173,"ARG_OF_PERICENTER":269.3792,"MEAN_ANOMALY":90.682,"EPHEMERIS_TYPE":0,"CLASSIFICATION_TYPE":"U","NORAD_CAT_ID":40908,"ELEMENT_SET_NO":999,"REV_AT_EPOCH":57959,"BSTAR":0.00044808,"MEAN_MOTION_DOT":0.00023219,"MEAN_MOTION_DDOT":0},{"OBJECT_NAME":"FOX-1A (AO-85)","OBJECT_ID":"2015-058D","EPOCH":"2026-03-04T18:15:47.281824","MEAN_MOTION":14.90304252,"ECCENTRICITY":0.0129144,"INCLINATION":64.7737,"RA_OF_ASC_NODE":243.3435,"ARG_OF_PERICENTER":97.8982,"MEAN_ANOMALY":263.6811,"EPHEMERIS_TYPE":0,"CLASSIFICATION_TYPE":"U","NORAD_CAT_ID":40967,"ELEMENT_SET_NO":999,"REV_AT_EPOCH":9800,"BSTAR":0.00050222,"MEAN_MOTION_DOT":5.565e-5,"MEAN_MOTION_DDOT":0},{"OBJECT_NAME":"CAS-2T & KS-1Q","OBJECT_ID":"2016-066G","EPOCH":"2026-03-04T03:58:14.321856","MEAN_MOTION":14.44449866,"ECCENTRICITY":0.03437657,"INCLINATION":98.3898,"RA_OF_ASC_NODE":140.0764,"ARG_OF_PERICENTER":88.1915,"MEAN_ANOMALY":275.8609,"EPHEMERIS_TYPE":0,"CLASSIFICATION_TYPE":"U","NORAD_CAT_ID":41847,"ELEMENT_SET_NO":999,"REV_AT_EPOCH":48963,"BSTAR":0.00030408808,"MEAN_MOTION_DOT":2.121e-5,"MEAN_MOTION_DDOT":0},{"OBJECT_NAME":"RADFXSAT (FOX-1B)","OBJECT_ID":"2017-073E","EPOCH":"2026-03-04T10:18:01.923552","MEAN_MOTION":15.10739378,"ECCENTRICITY":0.01552418,"INCLINATION":97.4869,"RA_OF_ASC_NODE":292.8371,"ARG_OF_PERICENTER":330.4186,"MEAN_ANOMALY":28.8327,"EPHEMERIS_TYPE":0,"CLASSIFICATION_TYPE":"U","NORAD_CAT_ID":43017,"ELEMENT_SET_NO":999,"REV_AT_EPOCH":44956,"BSTAR":0.00073699521,"MEAN_MOTION_DOT":0.00016278,"MEAN_MOTION_DDOT":0},{"OBJECT_NAME":"DIWATA-2B","OBJECT_ID":"2018-084H","EPOCH":"2026-03-04T20:27:27.119808","MEAN_MOTION":14.99932033,"ECCENTRICITY":0.0011269,"INCLINATION":98.1029,"RA_OF_ASC_NODE":255.6909,"ARG_OF_PERICENTER":141.8929,"MEAN_ANOMALY":218.3093,"EPHEMERIS_TYPE":0,"CLASSIFICATION_TYPE":"U","NORAD_CAT_ID":43678,"ELEMENT_SET_NO":999,"REV_AT_EPOCH":40057,"BSTAR":0.0003174,"MEAN_MOTION_DOT":3.88e-5,"MEAN_MOTION_DDOT":0},{"OBJECT_NAME":"ES'HAIL 2","OBJECT_ID":"2018-090A","EPOCH":"2026-03-04T20:20:21.820128","MEAN_MOTION":1.00271594,"ECCENTRICITY":0.0002688,"INCLINATION":0.0137,"RA_OF_ASC_NODE":216.3669,"ARG_OF_PERICENTER":162.7949,"MEAN_ANOMALY":114.2922,"EPHEMERIS_TYPE":0,"CLASSIFICATION_TYPE":"U","NORAD_CAT_ID":43700,"ELEMENT_SET_NO":999,"REV_AT_EPOCH":2663,"BSTAR":0,"MEAN_MOTION_DOT":1.34e-6,"MEAN_MOTION_DDOT":0},{"OBJECT_NAME":"FOX-1CLIFF (AO-95)","OBJECT_ID":"2018-099N","EPOCH":"2026-03-04T03:05:49.542432","MEAN_MOTION":15.24235219,"ECCENTRICITY":0.00088397,"INCLINATION":97.4523,"RA_OF_ASC_NODE":123.8824,"ARG_OF_PERICENTER":7.3581,"MEAN_ANOMALY":352.7785,"EPHEMERIS_TYPE":0,"CLASSIFICATION_TYPE":"U","NORAD_CAT_ID":43770,"ELEMENT_SET_NO":999,"REV_AT_EPOCH":39720,"BSTAR":0.0007483713,"MEAN_MOTION_DOT":0.00018229,"MEAN_MOTION_DDOT":0},{"OBJECT_NAME":"ITASAT","OBJECT_ID":"2018-099AE","EPOCH":"2026-03-04T08:49:49.176192","MEAN_MOTION":15.17572188,"ECCENTRICITY":0.00127484,"INCLINATION":97.4176,"RA_OF_ASC_NODE":117.0044,"ARG_OF_PERICENTER":5.328,"MEAN_ANOMALY":354.8087,"EPHEMERIS_TYPE":0,"CLASSIFICATION_TYPE":"U","NORAD_CAT_ID":43786,"ELEMENT_SET_NO":999,"REV_AT_EPOCH":39700,"BSTAR":0.00059817362,"MEAN_MOTION_DOT":0.00011982,"MEAN_MOTION_DDOT":0},{"OBJECT_NAME":"JY1SAT (JO-97)","OBJECT_ID":"2018-099AX","EPOCH":"2026-03-04T15:37:29.058528","MEAN_MOTION":15.30075134,"ECCENTRICITY":0.000461,"INCLINATION":97.4262,"RA_OF_ASC_NODE":126.3279,"ARG_OF_PERICENTER":280.0741,"MEAN_ANOMALY":79.9979,"EPHEMERIS_TYPE":0,"CLASSIFICATION_TYPE":"U","NORAD_CAT_ID":43803,"ELEMENT_SET_NO":999,"REV_AT_EPOCH":39762,"BSTAR":0.00082704,"MEAN_MOTION_DOT":0.00024053,"MEAN_MOTION_DDOT":0},{"OBJECT_NAME":"UWE-4","OBJECT_ID":"2018-111E","EPOCH":"2026-03-04T06:44:53.002464","MEAN_MOTION":15.39551665,"ECCENTRICITY":0.00086249,"INCLINATION":97.5854,"RA_OF_ASC_NODE":347.3749,"ARG_OF_PERICENTER":0.2448,"MEAN_ANOMALY":359.88,"EPHEMERIS_TYPE":0,"CLASSIFICATION_TYPE":"U","NORAD_CAT_ID":43880,"ELEMENT_SET_NO":999,"REV_AT_EPOCH":39460,"BSTAR":0.0012399812,"MEAN_MOTION_DOT":0.00048974,"MEAN_MOTION_DDOT":0},{"OBJECT_NAME":"TIANYAN 01","OBJECT_ID":"2019-093C","EPOCH":"2026-03-04T20:07:32.689920","MEAN_MOTION":14.86330676,"ECCENTRICITY":0.001507,"INCLINATION":97.7625,"RA_OF_ASC_NODE":138.5917,"ARG_OF_PERICENTER":72.3046,"MEAN_ANOMALY":287.9813,"EPHEMERIS_TYPE":0,"CLASSIFICATION_TYPE":"U","NORAD_CAT_ID":44881,"ELEMENT_SET_NO":999,"REV_AT_EPOCH":33591,"BSTAR":0.0002251,"MEAN_MOTION_DOT":1.933e-5,"MEAN_MOTION_DDOT":0},{"OBJECT_NAME":"RS-44 & BREEZE-KM R/B","OBJECT_ID":"2019-096E","EPOCH":"2026-03-04T11:28:53.092992","MEAN_MOTION":12.79747394,"ECCENTRICITY":0.02181323,"INCLINATION":82.5192,"RA_OF_ASC_NODE":49.278,"ARG_OF_PERICENTER":29.4769,"MEAN_ANOMALY":331.8426,"EPHEMERIS_TYPE":0,"CLASSIFICATION_TYPE":"U","NORAD_CAT_ID":44909,"ELEMENT_SET_NO":999,"REV_AT_EPOCH":28895,"BSTAR":-1.092472e-5,"MEAN_MOTION_DOT":9.0e-8,"MEAN_MOTION_DDOT":0},{"OBJECT_NAME":"SALSAT","OBJECT_ID":"2020-068K","EPOCH":"2026-03-04T12:00:02.662848","MEAN_MOTION":15.28060764,"ECCENTRICITY":0.00086882,"INCLINATION":97.8848,"RA_OF_ASC_NODE":60.3287,"ARG_OF_PERICENTER":318.7431,"MEAN_ANOMALY":41.3149,"EPHEMERIS_TYPE":0,"CLASSIFICATION_TYPE":"U","NORAD_CAT_ID":46495,"ELEMENT_SET_NO":999,"REV_AT_EPOCH":29936,"BSTAR":0.00053709432,"MEAN_MOTION_DOT":0.00014646,"MEAN_MOTION_DDOT":0},{"OBJECT_NAME":"XW-3 (CAS-9)","OBJECT_ID":"2021-131B","EPOCH":"2026-03-04T20:27:42.636384","MEAN_MOTION":14.41243556,"ECCENTRICITY":0.0005063,"INCLINATION":98.4968,"RA_OF_ASC_NODE":156.8359,"ARG_OF_PERICENTER":61.4368,"MEAN_ANOMALY":298.733,"EPHEMERIS_TYPE":0,"CLASSIFICATION_TYPE":"U","NORAD_CAT_ID":50466,"ELEMENT_SET_NO":999,"REV_AT_EPOCH":22008,"BSTAR":0.00026718,"MEAN_MOTION_DOT":8.19e-6,"MEAN_MOTION_DDOT":0}]
