UNISAT-6                
1 40012U 14033C   26063.69597588  .00005158  00000+0  56247-3 0  9997
2 40012  97.7715 218.3770 0046375  54.0700 306.4806 14.87592314630622
DUCHIFAT-1              
1 40021U 14033M   26063.33958146  .00090082  00000+0  16454-2 0  9994
2 40021  98.0635 109.1395 0006598  99.6030 260.5965 15.49057269639440
QB50P1                  
1 40025U 14033R   26063.49721693  .00016603  00000+0  85697-3 0  9993
2 40025  98.0999  67.4292 0007791 214.5862 145.4863 15.16385168637156
LILACSAT-2              
1 40908U 15049K   26063.86039560  .00023219  00000+0  44808-3 0  9997
2 40908  97.4812  96.9173 0005560 269.3792  90.6820 15.47812858579592
FOX-1A (AO-85)          
1 40967U 15058D   26063.76096391  .00005565  00000+0  50222-3 0  9997
2 40967  64.7737 243.3435 0129144  97.8982 263.6811 14.90304252 98004
CAS-2T & KS-1Q          
1 41847U 16066G   26063.16544354  .00002121  00000+0  30409-3 0  9996
2 41847  98.3898 140.0764 0343765  88.1915 275.8609 14.44449866489630
RADFXSAT (FOX-1B)       
1 43017U 17073E   26063.42918893  .00016278  00000+0  73700-3 0  9997
2 43017  97.4869 292.8371 0155241 330.4186  28.8327 15.10739378449567
DIWATA-2B               
1 43678U 18084H   26063.85239722  .00003880  00000+0  31740-3 0  9990
2 43678  98.1029 255.6909 0011269 141.8929 218.3093 14.99932033400573
ES'HAIL 2               
1 43700U 18090A   26063.84747477  .00000134  00000+0  00000+0 0  9993
2 43700   0.0137 216.3669 0002688 162.7949 114.2922  1.00271594 26639
FOX-1CLIFF (AO-95)      
1 43770U 18099N   26063.12904563  .00018229  00000+0  74837-3 0  9998
2 43770  97.4523 123.8824 0008839   7.3581 352.7785 15.24235219397205
ITASAT                  
1 43786U 18099AE  26063.36793028  .00011982  00000+0  59817-3 0  9993
2 43786  97.4176 117.0044 0012748   5.3280 354.8087 15.17572188397000
JY1SAT (JO-97)          
1 43803U 18099AX  26063.65103077  .00024053  00000+0  82704-3 0  9998
2 43803  97.4262 126.3279 0004610 280.0741  79.9979 15.30075134397629
UWE-4                   
1 43880U 18111E   26063.28116901  .00048974  00000+0  12400-2 0  9990
2 43880  97.5854 347.3749 0008624   0.2448 359.8800 15.39551665394609
TIANYAN 01              
1 44881U 19093C   26063.83857280  .00001933  00000+0  22510-3 0  9993
2 44881  97.7625 138.5917 0015070  72.3046 287.9813 14.86330676335915
RS-44 & BREEZE-KM R/B   
1 44909U 19096E   26063.47839228  .00000009  00000+0 -10925-4 0  9991
2 44909  82.5192  49.2780 0218132  29.4769 331.8426 12.79747394288951
SALSAT                  
1 46495U 20068K   26063.50003082  .00014646  00000+0  53709-3 0  9996
2 46495  97.8848  60.3287 0008688 318.7431  41.3149 15.28060764299367
XW-3 (CAS-9)            
1 50466U 21131B   26063.85257681  .00000819  00000+0  26718-3 0  9992
2 50466  98.4968 156.8359 0005063  61.4368 298.7330 14.41243556220085
